1 44271U 19029AN  20109.91667824  .00038509  00000-0  22158-2 0  9999
2 44271  52.9955 119.8176 0000975  98.4104  18.4366 15.12106064 50105
1 44271U 19029AN  20110.25001157 -.00018222 +00000-0 -10307-2 0  9994
2 44271 052.9955 118.3072 0001046 088.6371 043.7672 15.12136814001711
1 44271U 19029AN  20110.58334491 -.00008598  00000-0 -47670-3 0  9999
2 44271  52.9956 116.7956 0001005  81.1777  66.7930 15.12135080 50202
1 44271U 19029AN  20110.91667824 +.00034212 +00000-0 +19712-2 0  9990
2 44271 052.9957 115.2823 0001002 094.4142 069.1360 15.12113515001816
1 44271U 19029AN  20111.16667824 -.00034598 +00000-0 -19761-2 0  9991
2 44271 052.9958 114.1495 0001055 088.2084 357.0108 15.12150766001856
1 44271U 19029AN  20111.25001157 -.00001347 +00000-0 -60190-4 0  9992
2 44271 052.9957 113.7720 0001061 084.4105 094.7011 15.12135705001764
1 44271U 19029AN  20112.00001157  .00016113  00000-0  93928-3 0  9995
2 44271  52.9962 110.3691 0001053  92.9941 211.1545 15.12131417 50412
1 44271U 19029AN  20112.91667824  .00037319  00000-0  21473-2 0  9990
2 44271  52.9963 106.2116 0001019  91.3847 165.6068 15.12121223 50551
1 44271U 19029AN  20113.58335648 -.00034156  00000-0 -19502-2 0  9998
2 44271  52.9962 103.1892 0001007  78.3846 209.8229 15.12156595 50659
1 44271U 19029AN  20113.91667824 +.00035809 +00000-0 +20613-2 0  9998
2 44271 052.9965 101.6763 0001012 091.5595 212.1757 15.12125845001750
1 44271U 19029AN  20114.25001157 -.00009401  00000-0 -52272-3 0  9995
2 44271  52.9963 100.1663 0001070  79.0818 240.2360 15.12143835 50759
1 44271U 19029AN  20114.58334491 -.00040422 +00000-0 -23148-2 0  9998
2 44271 052.9962 098.6540 0001119 079.9191 254.9767 15.12130339001765
1 44271U 19029AN  20114.91667824  .00032880  00000-0  18963-2 0  9990
2 44271  52.9964  97.1414 0001150  91.9665 258.4842 15.12098464 50866
1 44271U 19029AN  20115.50001157 -.00009042 +00000-0 -50241-3 0  9999
2 44271 052.9960 094.4976 0001148 078.5422 209.1157 15.12119553001809
1 44271U 19029AN  20115.58334491 -.00038739  00000-0 -22172-2 0  9993
2 44271  52.9961  94.1192 0001152  81.4341 300.1098 15.12130376 50968
1 44271U 19029AN  20115.91667824 +.00024276 +00000-0 +14060-2 0  9995
2 44271 052.9963 092.6068 0001184 092.0241 305.0696 15.12102978001777
1 44271U 19029AN  20116.25002315 -.00005872  00000-0 -32021-3 0  9992
2 44271  52.9962  91.0968 0001246  80.7103 331.9982 15.12111343 51067
1 44271U 19029AN  20116.58334491 -.00036480 +00000-0 -20864-2 0  9991
2 44271 052.9961 089.5844 0001186 082.1349 346.0521 15.12128189001766
1 44271U 19029AN  20116.91667824  .00069821  00000-0  39834-2 0  9997
2 44271  52.9962  88.0721 0001377  92.5249 351.2176 15.12130766 51168
1 44271U 19029AN  20117.25001157  .00002092  00000-0  13700-3 0  9998
2 44271  52.9962  86.5622 0001428  81.0089  18.3252 15.12140340 51214
1 44271U 19029AN  20117.58334491 -.00034997 +00000-0 -19986-2 0  9996
2 44271 052.9962 085.0495 0001376 082.9284 031.9874 15.12160882001810
1 44271U 19029AN  20117.91667824 +.00007361 +00000-0 +43870-3 0  9995
2 44271 052.9963 083.5371 0001451 089.3759 041.1309 15.12148371001869
1 44271U 19029AN  20118.33335648  .00046929  00000-0  26921-2 0  9998
2 44271  52.9964  81.6495 0001460  76.8519 163.2122 15.12123487 51372
1 44271U 19029AN  20118.91667824  .00007385  00000-0  44038-3 0  9999
2 44271  52.9967  79.0024 0001366  87.2009  90.0302 15.12122162 51465
1 44271U 19029AN  20119.25001157 +.00023722 +00000-0 +13743-2 0  9999
2 44271 052.9967 077.4924 0001414 075.5502 117.2478 15.12106663001760
1 44271U 19029AN  20119.91668981  .00001830  00000-0  12203-3 0  9993
2 44271  52.9970  74.4675 0001423  84.8333 139.1362 15.12129762 51618
1 44271U 19029AN  20120.25001157 +.00031209 +00000-0 +18006-2 0  9997
2 44271 052.9971 072.9575 0001496 073.8214 165.6611 15.12109841001765
1 44271U 19029AN  20120.91667824 -.00008646 +00000-0 -47931-3 0  9990
2 44271 052.9975 069.9325 0001481 083.3223 187.2852 15.12141328001817
1 44271U 19029AN  20121.16667824 -.00000845  00000-0 -31415-4 0  9992
2 44271  52.9974  68.8001 0001546  74.7117 117.5852 15.12130541 51808
1 44271U 19029AN  20121.25001157 +.00032620 +00000-0 +18806-2 0  9994
2 44271 052.9976 068.4224 0001565 073.1864 213.0078 15.12115665001869
1 44271U 19029AN  20121.91668981 +.00030838 +00000-0 +17780-2 0  9990
2 44271 052.9979 065.3973 0001525 083.6816 233.7079 15.12140075001759
1 44271U 19029AN  20122.25001157  .00035424  00000-0  20398-2 0  9999
2 44271  52.9980  63.8873 0001603  73.9030 259.0148 15.12118616 51962
1 44271U 19029AN  20122.91667824 -.00028282  00000-0 -16116-2 0  9990
2 44271  52.9983  60.8624 0001446  82.9436 281.1270 15.12132107 52077
1 44271U 19029AN  20123.58334491 +.00000243 +00000-0 +31021-4 0  9994
2 44271 052.9984 057.8388 0001386 082.1263 313.0541 15.12108672001771
1 44271U 19029AN  20123.91667824 -.00028040  00000-0 -15976-2 0  9996
2 44271  52.9985  56.3275 0001433  83.6056 327.1142 15.12132417 52223
1 44271U 19029AN  20124.25001157 +.00041609 +00000-0 +23925-2 0  9992
2 44271 052.9984 054.8171 0001462 075.2881 350.9994 15.12095233001761
1 44271U 19029AN  20124.58334491  .00023355  00000-0  13534-2 0  9991
2 44271  52.9986  53.3038 0001386  84.9278 356.9116 15.12105910 52325
1 44271U 19029AN  20124.91667824 -.00028682 +00000-0 -16345-2 0  9990
2 44271 052.9986 051.7927 0001462 085.4125 011.9696 15.12136923001767
1 44271U 19029AN  20125.25001157  .00042108  00000-0  24206-2 0  9991
2 44271  52.9984  50.2823 0001476  77.0815  35.8707 15.12098224 52420
1 44271U 19029AN  20125.58334491 +.00018697 +00000-0 +10875-2 0  9990
2 44271 052.9986 048.7690 0001419 086.8157 041.6932 15.12107586001768
1 44271U 19029AN  20125.91668981 -.00026662  00000-0 -15177-2 0  9994
2 44271  52.9986  47.2581 0001509  86.8831  57.2345 15.12138236 52527
1 44271U 19029AN  20126.25001157 +.00042476 +00000-0 +24412-2 0  9999
2 44271 052.9984 045.7476 0001518 078.7556 080.8700 15.12102394001768
1 44271U 19029AN  20126.91668981 -.00010270  00000-0 -57281-3 0  9996
2 44271  52.9987  42.7236 0001566  87.3399 103.4595 15.12136275 52671
1 44271U 19029AN  20127.25001157 +.00033795 +00000-0 +19477-2 0  9999
2 44271 052.9985 041.2130 0001579 079.8077 126.5004 15.12110220001766
1 44271U 19029AN  20127.91667824 -.00025305 +00000-0 -14391-2 0  9991
2 44271 052.9987 038.1892 0001650 086.6980 150.7334 15.12142797001766
1 44271U 19029AN  20128.00001157 -.00021952  00000-0 -12458-2 0  9999
2 44271  52.9985  37.8117 0001671  83.6151 247.7124 15.12136575 52835
1 44271U 19029AN  20128.41667824 -.00034573 +00000-0 -19748-2 0  9995
2 44271 052.9988 035.9215 0001640 083.9594 356.8263 15.12147255001798
1 44271U 19029AN  20128.83335648 -.00021299  00000-0 -12077-2 0  9996
2 44271  52.9990  34.0318 0001724  88.2513 102.0624 15.12149164 52965
1 44271U 19029AN  20128.91667824 -.00016585 +00000-0 -93609-3 0  9992
2 44271 052.9988 033.6545 0001721 085.6683 198.4759 15.12145661001763
1 44271U 19029AN  20129.25001157 +.00019143 +00000-0 +11123-2 0  9992
2 44271 052.9988 032.1435 0001693 080.0191 219.7036 15.12130528001767
1 44271U 19029AN  20129.91667824 -.00030096  00000-0 -17153-2 0  9995
2 44271  52.9992  29.1196 0001795  84.8184 246.0637 15.12156181 53129
1 44271U 19029AN  20130.41667824 -.00029973  00000-0 -17081-2 0  9994
2 44271  52.9996  26.8516 0001761  85.1351  89.1279 15.12158826 53201
1 44271U 19029AN  20130.91668981 -.00030553 +00000-0 -17431-2 0  9999
2 44271 052.9996 024.5846 0001725 084.0665 293.6250 15.12128730001775
1 44271U 19029AN  20131.58334491  .00043235  00000-0  24847-2 0  9997
2 44271  53.0000  21.5601 0001681  89.7509 318.9955 15.12095777 53380
1 44271U 19029AN  20131.91667824 -.00030175 +00000-0 -17210-2 0  9990
2 44271 053.0000 020.0499 0001764 084.8516 339.4401 15.12132760001768
1 44271U 19029AN  20132.25001157 -.00010441  00000-0 -58276-3 0  9991
2 44271  53.0001  18.5383 0001728  81.8868 357.9621 15.12128205 53484
1 44271U 19029AN  20132.58334491 +.00039915 +00000-0 +22958-2 0  9999
2 44271 053.0004 017.0251 0001721 091.5081 003.9107 15.12103487001769
1 44271U 19029AN  20132.91667824 -.00027464 +00000-0 -15642-2 0  9995
2 44271 053.0004 015.5150 0001780 086.4462 024.5277 15.12134597001764
1 44271U 19029AN  20133.25001157 -.00016776  00000-0 -94737-3 0  9991
2 44271  53.0004  14.0032 0001738  84.5520  41.9837 15.12135923 53636
1 44271U 19029AN  20133.91667824 -.00020201 +00000-0 -11448-2 0  9998
2 44271 053.0006 010.9802 0001777 088.6761 068.9968 15.12135792001768
1 44271U 19029AN  20134.25001157 -.00021442  00000-0 -12162-2 0  9999
2 44271  53.0005   9.4683 0001731  88.0669  85.1696 15.12141730 53785
1 44271U 19029AN  20134.58334491 +.00032873 +00000-0 +18949-2 0  9992
2 44271 053.0007 007.9555 0001753 097.2505 091.5627 15.12116333001760
1 44271U 19029AN  20134.91667824 -.00013807 +00000-0 -77634-3 0  9993
2 44271 053.0006 006.4456 0001777 091.0592 113.3229 15.12134513001768
1 44271U 19029AN  20135.25001157 -.00029202  00000-0 -16641-2 0  9998
2 44271  53.0005   4.9335 0001732  91.6743 128.2721 15.12146762 53938
1 44271U 19029AN  20135.91667824 -.00009216 +00000-0 -51222-3 0  9998
2 44271 053.0005 001.9110 0001806 093.2029 157.8946 15.12132806001768
1 44271U 19029AN  20136.50001157  .00034742  00000-0  20013-2 0  9998
2 44271  53.0003 359.2641 0001782 100.7521  87.6024 15.12114242 54127
1 44271U 19029AN  20136.58334491 +.00035106 +00000-0 +20216-2 0  9996
2 44271 053.0005 358.8862 0001828 101.7076 180.5332 15.12121166001766
1 44271U 19029AN  20136.91668981 -.00003023 +00000-0 -15641-3 0  9999
2 44271 053.0003 357.3764 0001836 094.6358 203.2430 15.12130272001761
1 44271U 19029AN  20137.25001157 -.00040885  00000-0 -23402-2 0  9993
2 44271  53.0003 355.8642 0001775  95.9798 217.4016 15.12152066 54235
1 44271U 19029AN  20137.58334491 +.00032010 +00000-0 +18454-2 0  9999
2 44271 053.0004 354.3516 0001870 102.5058 226.4555 15.12124974001765
1 44271U 19029AN  20137.91667824 -.00003826 +00000-0 -20245-3 0  9992
2 44271 053.0004 352.8419 0001871 095.1561 249.3848 15.12133207054347
